IRIDIUM 171             
1 43929U 19002H   25012.82771362  .00000141  00000+0  43127-4 0  9991
2 43929  86.3980 211.2498 0002376  94.9774 265.1693 14.34216940314372
IRIDIUM 170             
1 43930U 19002J   25013.07627190  .00000528  00000+0  79913-4 0  9991
2 43930  86.6098 210.9286 0001980  87.3038 272.8406 14.72236227322735
IRIDIUM 167             
1 43931U 19002K   25012.82137684  .00000146  00000+0  44990-4 0  9991
2 43931  86.3970 211.0218 0002097 101.5671 258.5761 14.34218396314372
IRIDIUM 181             
1 56726U 23068S   25012.78967508  .00000597  00000+0  17048-3 0  9998
2 56726  86.6862 274.1206 0002634  86.5631 273.5872 14.43586594 87378
IRIDIUM 177             
1 56727U 23068T   25012.58735019  .00000084  00000+0  75786-5 0  9993
2 56727  86.1967 215.9241 0001944  79.8340 280.3100 14.80198881 89356
IRIDIUM 174             
1 56728U 23068U   25013.05519203  .00000743  00000+0  94290-4 0  9994
2 56728  86.1975 215.8228 0002474  85.3657 274.7847 14.80224123 89424
IRIDIUM 178             
1 56729U 23068V   25012.71176299  .00002199  00000+0  28597-3 0  9994
2 56729  86.5763 243.3600 0003082  82.5708 277.5863 14.80235089 89372
IRIDIUM 179             
1 56730U 23068W   25013.11197596  .00001827  00000+0  23698-3 0  9998
2 56730  86.6771 249.9664 0002290  88.8806 271.2678 14.80243985 89430
